MESAT-1
1 60209U 24125G   26013.86327480  .00022237  00000-0  41523-3 0  9995
2 60209  97.2504 229.3079 0015698  67.2499 293.0409 15.48644607 85571
ISTSAT-1
1 60238U 24128D   26014.00801550  .00003810  00000-0  24537-3 0  9994
2 60238  61.9895  30.3441 0052976 100.9968 259.7092 15.09106069 83176
IONOSFERA-M 01
1 61735U 24199A   26013.96744220  .00000020  00000-0  28771-4 0  9994
2 61735  98.7386 248.5649 0000685 154.4070 205.7141 14.22722131105778
IONOSFERA-M 02
1 61736U 24199B   26013.93171140  .00000025  00000-0  30992-4 0  9990
2 61736  98.7385 248.4416 0001821  69.1473 290.9899 14.22724397108899
SITRO-AIS-16
1 61737U 24199C   26013.96814824  .00002018  00000-0  18189-3 0  9994
2 61737  97.3328 222.8791 0005836 220.3400 139.7390 14.96586068108747
SITRO-AIS-15
1 61738U 24199D   26013.95437725  .00001574  00000-0  14274-3 0  9992
2 61738  97.3333 222.8989 0005412 221.4999 138.5813 14.96612982108740
SITRO-AIS-21
1 61739U 24199E   26013.97877081  .00001633  00000-0  15602-3 0  9990
2 61739  97.3344 221.8485 0011872 217.1060 142.9342 14.94469418108716
SITRO-AIS-22
1 61740U 24199F   26013.87667892  .00001599  00000-0  15108-3 0  9990
2 61740  97.3344 221.8391 0011617 218.8207 141.2181 14.94957991108858
SITRO-AIS-24
1 61741U 24199G   26013.94959641  .00001904  00000-0  17841-3 0  9991
2 61741  97.3342 221.9011 0011518 220.6366 139.3998 14.95067599108833
SITRO-AIS-23
1 61742U 24199H   26013.93384902  .00002109  00000-0  19759-3 0  9991
2 61742  97.3346 221.9156 0011351 218.9161 141.1245 14.94987446108710
SITRO-AIS-13
1 61743U 24199J   26013.96930561  .00002145  00000-0  19176-3 0  9996
2 61743  97.3325 223.0221 0005416 221.2937 138.7877 14.96846959108917
CSTP-2.11
1 61744U 24199K   26013.96738703  .00013884  00000-0  31571-3 0  9996
2 61744  97.3233 247.5681 0011361 110.8190 249.4276 15.43040619110511
POLYTECH UNIVERSE-5 (RS70S)
1 61745U 24199L   26013.94893348  .00020037  00000-0  39210-3 0  9998
2 61745  97.3207 248.5017 0009007 111.3214 248.8999 15.47408463113724
COLIBRI-S (RS67S)
1 61746U 24199M   26013.98271400  .00012418  00000-0  30528-3 0  9999
2 61746  97.3240 246.9500 0011440 113.4650 246.7801 15.40714639113617
POLYTECH UNIVERSE-4 (RS71S)
1 61747U 24199N   26013.93352253  .00010597  00000-0  27162-3 0  9997
2 61747  97.3243 246.5625 0011896 112.7937 247.4567 15.39477765113587
SITRO-AIS-44
1 61748U 24199P   26013.94337616  .00023914  00000-0  42968-3 0  9993
2 61748  97.3187 249.0694 0008704 109.0098 251.2097 15.49828727113760
VIZARD-ION (RS68S)
1 61749U 24199Q   26013.96820443  .00016307  00000-0  35067-3 0  9991
2 61749  97.3236 248.0322 0010727 108.5305 251.7110 15.44670370113682
MTUSI-1
1 61750U 24199R   26013.96072701  .00016921  00000-0  36783-3 0  9997
2 61750  97.3202 247.5688 0010472 117.3880 242.8435 15.44344965113666
VLADIVOSTOK-1
1 61751U 24199S   26013.95288626  .00005988  00000-0  18642-3 0  9997
2 61751  97.3230 244.6272 0011323 131.9887 228.2322 15.33600013113479
SITRO-AIS-14
1 61752U 24199T   26013.93999779  .00001897  00000-0  17090-3 0  9995
2 61752  97.3341 222.9151 0005009 218.8419 141.2444 14.96672949112044
HORS-3 (RS81S)
1 61753U 24199U   26013.96864133  .00016494  00000-0  35657-3 0  9992
2 61753  97.3211 247.7042 0009654 116.4325 243.7915 15.44523105113678
HORS-4 (RS82S)
1 61754U 24199V   26013.92873223  .00021665  00000-0  43544-3 0  9999
2 61754  97.3190 248.1756 0009634 114.5869 245.6386 15.46607845113705
SITRO-AIS-43
1 61755U 24199W   26013.92112701  .00027411  00000-0  48886-3 0  9996
2 61755  97.3184 249.0978 0008543 107.4784 252.7402 15.50016312113762
SITRO-AIS-42
1 61756U 24199X   26013.97116359  .00023915  00000-0  42498-3 0  9993
2 61756  97.3192 249.1887 0008535 108.9474 251.2703 15.50144581113774
HORIZON (RS59S)
1 61757U 24199Y   26013.96846699  .00043852  00000-0  57843-3 0  9992
2 61757  97.3187 250.8235 0009189  95.7046 264.5258 15.58235466113873
SITRO-AIS-20
1 61758U 24199Z   26013.94860378  .00001536  00000-0  13833-3 0  9995
2 61758  97.3334 223.0369 0004857 223.6984 136.3855 14.96923234112054
SITRO-AIS-19
1 61759U 24199AA  26013.94963192  .00001379  00000-0  12479-3 0  9994
2 61759  97.3334 223.0377 0004812 225.8380 134.2448 14.96901915112056
SITRO-AIS-41
1 61760U 24199AB  26013.92316802  .00024380  00000-0  44288-3 0  9994
2 61760  97.3194 248.9708 0008574 108.2880 251.9305 15.49513815113758
NORBY-3
1 61761U 24199AC  26013.97789147  .00017755  00000-0  36981-3 0  9995
2 61761  97.3189 248.1133 0008728 111.9450 248.2728 15.45614520113706
ARCTICSAT-1 (RS74S)
1 61762U 24199AD  26013.93716807  .00039344  00000-0  56190-3 0  9997
2 61762  97.3198 250.5612 0009332  94.3009 265.9313 15.56114175113857
SIT-HSE
1 61763U 24199AE  26013.92179726  .00013144  00000-0  28506-3 0  9990
2 61763  97.3215 248.3872 0007263 128.3661 231.8242 15.44502064113717
SIT-2086
1 61764U 24199AF  26013.96845204  .00012309  00000-0  26598-3 0  9997
2 61764  97.3208 248.4647 0009244 105.6249 254.6021 15.44609201110561
MORDOVIA-IOT (RS50S)
1 61765U 24199AG  26013.96988762  .00209105  00000-0  90426-3 0  9998
2 61765  97.3039 254.3158 0007347  84.5096 275.7012 15.84338085110965
RUZAEVKA-390 (RS44S)
1 61766U 24199AH  26013.96901090  .00091173  00000-0  76455-3 0  9998
2 61766  97.3126 252.8254 0007770  86.2682 273.9469 15.69624762110861
HOD-HOD
1 61768U 24199AK  26013.93523561  .00012867  00000-0  29919-3 0  9996
2 61768  97.3212 247.4816 0007810 119.4199 240.7829 15.42425686110508
KOSAR
1 61769U 24199AL  26013.96496459  .00015262  00000-0  33213-3 0  9999
2 61769  97.3207 248.0225 0007528 117.4444 242.7571 15.44365455110540
SITRO-AIS-48
1 61771U 24199AN  26013.96592175  .00017957  00000-0  37697-3 0  9997
2 61771  97.3178 247.4080 0010832 125.3038 234.9225 15.45359046110517
HYPERVIEW-1G (RS66S)
1 61772U 24199AP  26013.97091924  .00027082  00000-0  46618-3 0  9998
2 61772  97.3184 248.8768 0011307 113.9166 246.3272 15.50991228110605
SITRO-AIS-47
1 61773U 24199AQ  26013.92645882  .00019684  00000-0  40822-3 0  9992
2 61773  97.3179 247.4711 0010739 125.5633 234.6619 15.45699152110519
SITRO-AIS-46
1 61774U 24199AR  26013.96826624  .00019321  00000-0  39068-3 0  9990
2 61774  97.3173 247.6946 0010692 125.1874 235.0378 15.46443011110538
CSTP-2.2
1 61775U 24199AS  26013.95131484  .00009234  00000-0  23978-3 0  9998
2 61775  97.3228 245.9834 0018251 113.9672 246.3487 15.39016528110400
SITRO-AIS-40
1 61776U 24199AT  26013.96507870  .00019191  00000-0  38672-3 0  9996
2 61776  97.3173 247.7024 0010744 125.1074 235.1185 15.46544398113684
CSTP-2.1
1 61777U 24199AU  26013.93342959  .00012341  00000-0  31566-3 0  9994
2 61777  97.3227 245.9997 0017323 114.9216 245.3832 15.39416528110402
SITRO-AIS-39
1 61778U 24199AV  26013.94025655  .00018034  00000-0  38057-3 0  9994
2 61778  97.3176 247.2928 0011080 126.4483 233.7789 15.45200730110509
ALTAIR (RS65S)
1 61779U 24199AW  26013.98234406  .00007672  00000-0  23827-3 0  9990
2 61779  97.3249 244.4794 0015066 133.9638 226.2851 15.33532282113455
SITRO-AIS-37
1 61780U 24199AX  26013.95644227  .00018368  00000-0  38102-3 0  9991
2 61780  97.3185 247.4707 0011150 126.2083 234.0199 15.45701085110510
ASRTU-1 (RS64S/BJ2CR/AO-123)
1 61781U 24199AY  26013.93189022  .00006131  00000-0  19569-3 0  9998
2 61781  97.3232 244.0425 0015442 135.4799 224.7687 15.32742424110277
TUSUR GO (RS78S)
1 61782U 24199AZ  26013.98067963  .00048209  00000-0  64538-3 0  9991
2 61782  97.3145 249.8818 0010144 107.5681 252.6683 15.57808281110675
ZIMSAT-2 (Z2AS)
1 61783U 24199BA  26009.19142266  .00678273  19479-3  17950-2 0  9998
2 61783  97.2964 248.8590 0008008 103.0885 257.1284 15.94647359113345
SAMSAT-IONOSPHERE (RS75S)
1 61784U 24199BB  26013.95860769  .00017684  00000-0  37406-3 0  9992
2 61784  97.3204 247.4223 0012599 121.0829 239.1659 15.45116926113657
RTU MIREA-1 (RS51S)
1 61785U 24199BC  26013.94950545  .00020130  00000-0  40596-3 0  9998
2 61785  97.3197 247.7267 0012363 118.4246 241.8252 15.46490824110527
SITRO-AIS-38
1 61786U 24199BD  26013.96659589  .00010057  00000-0  23430-3 0  9990
2 61786  97.3190 247.1396 0012157 130.1286 230.1028 15.42387112110493
2024-199BE (? SWSU-60)
1 61787U 24199BE  26013.94776505  .00006016  00000-0  18928-3 0  9993
2 61787  97.3239 244.2016 0015322 134.9333 225.3156 15.33207447113434
SITRO-AIS-45
1 61788U 24199BF  26013.91519705  .00021509  00000-0  45066-3 0  9995
2 61788  97.3173 247.3016 0011029 126.4532 233.7735 15.45376111110489
SITRO-AIS-17
1 61789U 24199BG  26013.87410616  .00002089  00000-0  18647-3 0  9999
2 61789  97.3345 223.0071 0004685 228.6678 131.4142 14.96935616108949
SITRO-AIS-18
1 61790U 24199BH  26013.94992249  .00001471  00000-0  13280-3 0  9998
2 61790  97.3334 223.0403 0004822 228.0196 132.0617 14.96891999108950
INNOCUBE (TUBSAT-31)
1 62616U 25009H   26013.72076805  .00005186  00000-0  21827-3 0  9997
2 62616  97.4051  95.5330 0006912 147.4245 212.7420 15.23792979 55270
HADES-R (SO-124)
1 62690U 25009CK  26013.01894461  .00277441  00000-0  18049-2 0  9993
2 62690  97.3765 102.1587 0004368 300.9470  59.1365 15.75134816 55673
OTP-2
1 63235U 25052AB  26013.67498942  .00002182  00000-0  10009-3 0  9990
2 63235  97.4055 268.5008 0006553   2.1664 357.9600 15.21485144 46351
HADES-ICM (SO-125)
1 63492U 25052BN  26013.95444525  .00041659  00000-0  90311-3 0  9990
2 63492  97.4050 272.9408 0006799 348.3534  11.7556 15.44278092 46663
IONOSFERA-M 03
1 64876U 25155A   26013.95198569  .00000051  00000-0  43088-4 0  9996
2 64876  98.5826 339.9137 0000857   4.2648 355.8537 14.21450396 24490
IONOSFERA-M 04
1 64877U 25155B   26013.91663581  .00000050  00000-0  42630-4 0  9995
2 64877  98.5825 339.7984 0000621  52.4751 307.6483 14.21451665 24481
INNOSAT16 (RS92S7)
1 64878U 25155C   26013.94638782  .00004305  00000-0  18470-3 0  9995
2 64878  97.4369 341.9911 0011556  19.2991 340.8681 15.23201771 57179
